[{"OBJECT_NAME":"OBJECT A","OBJECT_ID":"2023-189A","EPOCH":"2026-03-09T22:59:06.381600","MEAN_MOTION":15.32403275,"ECCENTRICITY":0.00094831,"INCLINATION":97.4458,"RA_OF_ASC_NODE":86.5997,"ARG_OF_PERICENTER":249.5377,"MEAN_ANOMALY":110.4847,"EPHEMERIS_TYPE":0,"CLASSIFICATION_TYPE":"U","NORAD_CAT_ID":58502,"ELEMENT_SET_NO":999,"REV_AT_EPOCH":12601,"BSTAR":0.00019874471,"MEAN_MOTION_DOT":6.146e-5,"MEAN_MOTION_DDOT":0},{"OBJECT_NAME":"STARLINK-35089","OBJECT_ID":"2025-195AC","EPOCH":"2026-03-09T21:56:21.993216","MEAN_MOTION":15.30194313,"ECCENTRICITY":0.00011264,"INCLINATION":53.1615,"RA_OF_ASC_NODE":257.428,"ARG_OF_PERICENTER":333.8824,"MEAN_ANOMALY":26.212,"EPHEMERIS_TYPE":0,"CLASSIFICATION_TYPE":"U","NORAD_CAT_ID":65484,"ELEMENT_SET_NO":999,"REV_AT_EPOCH":3000,"BSTAR":0.00094089997,"MEAN_MOTION_DOT":0.00027606,"MEAN_MOTION_DDOT":0}]
